start=new Date('2021-09-14T00:00:00.000Z').valueOf();
sats=[{"APOAPSIS":"547.830","MEAN_MOTION":"15.06402381","ECCENTRICITY":"0.00009010","TLE_LINE2":"2 48326  53.0541 256.2086 0000901  49.9707 310.1361 15.06402381 21107","GP_ID":"184635641","PERIAPSIS":"546.582","OBJECT_TYPE":"PAYLOAD","REV_AT_EPOCH":"2110","OBJECT_NAME":"STARLINK-2498","TIME_SYSTEM":"UTC","RCS_SIZE":"LARGE","EPOCH":"2021-09-13T09:24:29.318400","DECAY_DATE":null,"MEAN_ELEMENT_THEORY":"SGP4","ELEMENT_SET_NO":"999","RA_OF_ASC_NODE":"256.2086","COUNTRY_CODE":"US","MEAN_MOTION_DDOT":"0.0000000000000","FILE":"3114796","ARG_OF_PERICENTER":"49.9707","OBJECT_ID":"2021-036BC","CENTER_NAME":"EARTH","NORAD_CAT_ID":"48326","TLE_LINE1":"1 48326U 21036BC  21256.39200600  .00001037  00000-0  88460-4 0  9992","SITE":"AFETR","INCLINATION":"53.0541","LAUNCH_DATE":"2021-04-29","BSTAR":"0.00008846000000","PERIOD":"95.592","CLASSIFICATION_TYPE":"U","MEAN_MOTION_DOT":"0.00001037","SEMIMAJOR_AXIS":"6925.341","REF_FRAME":"TEME","MEAN_ANOMALY":"310.1361","EPHEMERIS_TYPE":"0"},{"FILE":"3115005","ARG_OF_PERICENTER":"89.9070","MEAN_MOTION_DDOT":"0.0000000000000","ELEMENT_SET_NO":"999","RA_OF_ASC_NODE":"254.4375","COUNTRY_CODE":"US","NORAD_CAT_ID":"48327","CENTER_NAME":"EARTH","OBJECT_ID":"2021-036BD","CLASSIFICATION_TYPE":"U","PERIOD":"95.592","LAUNCH_DATE":"2021-04-29","BSTAR":"0.00008934200000","INCLINATION":"53.0541","TLE_LINE1":"1 48327U 21036BD  21256.78640099  .00001050  00000-0  89342-4 0  9991","SITE":"AFETR","SEMIMAJOR_AXIS":"6925.335","REF_FRAME":"TEME","MEAN_ANOMALY":"270.1989","EPHEMERIS_TYPE":"0","MEAN_MOTION_DOT":"0.00001050","MEAN_MOTION":"15.06404497","APOAPSIS":"547.626","TLE_LINE2":"2 48327  53.0541 254.4375 0000615  89.9070 270.1989 15.06404497 21165","ECCENTRICITY":"0.00006150","OBJECT_NAME":"STARLINK-2502","TIME_SYSTEM":"UTC","REV_AT_EPOCH":"2116","PERIAPSIS":"546.774","OBJECT_TYPE":"PAYLOAD","GP_ID":"184664619","MEAN_ELEMENT_THEORY":"SGP4","RCS_SIZE":"LARGE","EPOCH":"2021-09-13T18:52:25.045536","DECAY_DATE":null},{"PERIOD":"95.593","CLASSIFICATION_TYPE":"U","BSTAR":"0.00011341000000","LAUNCH_DATE":"2021-04-29","INCLINATION":"53.0542","TLE_LINE1":"1 48328U 21036BE  21256.38464570  .00001408  00000-0  11341-3 0  9996","SITE":"AFETR","SEMIMAJOR_AXIS":"6925.379","REF_FRAME":"TEME","MEAN_ANOMALY":"301.9935","EPHEMERIS_TYPE":"0","MEAN_MOTION_DOT":"0.00001408","ARG_OF_PERICENTER":"58.1154","FILE":"3114796","MEAN_MOTION_DDOT":"0.0000000000000","ELEMENT_SET_NO":"999","COUNTRY_CODE":"US","RA_OF_ASC_NODE":"256.2425","NORAD_CAT_ID":"48328","CENTER_NAME":"EARTH","OBJECT_ID":"2021-036BE","OBJECT_NAME":"STARLINK-2504","TIME_SYSTEM":"UTC","REV_AT_EPOCH":"2110","PERIAPSIS":"546.530","OBJECT_TYPE":"PAYLOAD","GP_ID":"184636143","MEAN_ELEMENT_THEORY":"SGP4","EPOCH":"2021-09-13T09:13:53.388480","RCS_SIZE":"LARGE","DECAY_DATE":null,"MEAN_MOTION":"15.06390006","APOAPSIS":"547.958","TLE_LINE2":"2 48328  53.0542 256.2425 0001031  58.1154 301.9935 15.06390006 21105","ECCENTRICITY":"0.00010310"},{"OBJECT_ID":"2021-036BF","NORAD_CAT_ID":"48329","CENTER_NAME":"EARTH","MEAN_MOTION_DDOT":"0.0000000000000","RA_OF_ASC_NODE":"255.6662","COUNTRY_CODE":"US","ELEMENT_SET_NO":"999","ARG_OF_PERICENTER":"63.0565","FILE":"3114873","MEAN_MOTION_DOT":"-0.00000508","EPHEMERIS_TYPE":"0","MEAN_ANOMALY":"297.0531","REF_FRAME":"TEME","SEMIMAJOR_AXIS":"6925.363","INCLINATION":"53.0545","SITE":"AFETR","TLE_LINE1":"1 48329U 21036BF  21256.51365283 -.00000508  00000-0 -15192-4 0  9994","PERIOD":"95.592","CLASSIFICATION_TYPE":"U","LAUNCH_DATE":"2021-04-29","BSTAR":"-0.00001519200000","TLE_LINE2":"2 48329  53.0545 255.6662 0001049  63.0565 297.0531 15.06395262 21718","ECCENTRICITY":"0.00010490","APOAPSIS":"547.955","MEAN_MOTION":"15.06395262","DECAY_DATE":null,"RCS_SIZE":"LARGE","EPOCH":"2021-09-13T12:19:39.604512","MEAN_ELEMENT_THEORY":"SGP4","OBJECT_TYPE":"PAYLOAD","PERIAPSIS":"546.502","GP_ID":"184639330","TIME_SYSTEM":"UTC","OBJECT_NAME":"STARLINK-2510","REV_AT_EPOCH":"2171"},{"PERIOD":"95.592","CLASSIFICATION_TYPE":"U","LAUNCH_DATE":"2021-04-29","BSTAR":"0.00013558000000","INCLINATION":"53.0550","TLE_LINE1":"1 48330U 21036BG  21256.37726829  .00001739  00000-0  13558-3 0  9995","SITE":"AFETR","REF_FRAME":"TEME","SEMIMAJOR_AXIS":"6925.360","EPHEMERIS_TYPE":"0","MEAN_ANOMALY":"295.4721","MEAN_MOTION_DOT":"0.00001739","ARG_OF_PERICENTER":"64.6343","FILE":"3114796","MEAN_MOTION_DDOT":"0.0000000000000","ELEMENT_SET_NO":"999","RA_OF_ASC_NODE":"256.2824","COUNTRY_CODE":"US","NORAD_CAT_ID":"48330","CENTER_NAME":"EARTH","OBJECT_ID":"2021-036BG","OBJECT_NAME":"STARLINK-2501","TIME_SYSTEM":"UTC","REV_AT_EPOCH":"2110","PERIAPSIS":"546.724","OBJECT_TYPE":"PAYLOAD","GP_ID":"184635142","MEAN_ELEMENT_THEORY":"SGP4","RCS_SIZE":"LARGE","EPOCH":"2021-09-13T09:03:15.980256","DECAY_DATE":null,"MEAN_MOTION":"15.06396257","APOAPSIS":"547.726","TLE_LINE2":"2 48330  53.0550 256.2824 0000724  64.6343 295.4721 15.06396257 21104","ECCENTRICITY":"0.00007240"},{"EPHEMERIS_TYPE":"0","MEAN_ANOMALY":"301.5053","REF_FRAME":"TEME","SEMIMAJOR_AXIS":"6925.367","MEAN_MOTION_DOT":"-0.00000488","CLASSIFICATION_TYPE":"U","PERIOD":"95.593","LAUNCH_DATE":"2021-04-29","BSTAR":"-0.00001391600000","INCLINATION":"53.0547","SITE":"AFETR","TLE_LINE1":"1 48331U 21036BH  21256.50628533 -.00000488  00000-0 -13916-4 0  9995","NORAD_CAT_ID":"48331","CENTER_NAME":"EARTH","OBJECT_ID":"2021-036BH","ARG_OF_PERICENTER":"58.6030","FILE":"3114889","MEAN_MOTION_DDOT":"0.0000000000000","RA_OF_ASC_NODE":"255.6994","COUNTRY_CODE":"US","ELEMENT_SET_NO":"999","MEAN_ELEMENT_THEORY":"SGP4","DECAY_DATE":null,"RCS_SIZE":"LARGE","EPOCH":"2021-09-13T12:09:03.052512","TIME_SYSTEM":"UTC","OBJECT_NAME":"STARLINK-2514","REV_AT_EPOCH":"2171","OBJECT_TYPE":"PAYLOAD","PERIAPSIS":"546.567","GP_ID":"184639425","TLE_LINE2":"2 48331  53.0547 255.6994 0000961  58.6030 301.5053 15.06393926 21715","ECCENTRICITY":"0.00009610","MEAN_MOTION":"15.06393926","APOAPSIS":"547.898"},{"PERIAPSIS":"546.571","OBJECT_TYPE":"PAYLOAD","GP_ID":"184662884","OBJECT_NAME":"STARLINK-2511","TIME_SYSTEM":"UTC","REV_AT_EPOCH":"2111","EPOCH":"2021-09-13T10:28:11.407296","RCS_SIZE":"LARGE","DECAY_DATE":null,"MEAN_ELEMENT_THEORY":"SGP4","APOAPSIS":"547.848","MEAN_MOTION":"15.06401207","TLE_LINE2":"2 48332  53.0546 256.0151 0000922  73.8550 286.2541 15.06401207 21115","ECCENTRICITY":"0.00009220","INCLINATION":"53.0546","TLE_LINE1":"1 48332U 21036BJ  21256.43624314 -.00001165  00000-0 -59336-4 0  9990","SITE":"AFETR","PERIOD":"95.592","CLASSIFICATION_TYPE":"U","BSTAR":"-0.00005933600000","LAUNCH_DATE":"2021-04-29","MEAN_MOTION_DOT":"-0.00001165","REF_FRAME":"TEME","SEMIMAJOR_AXIS":"6925.345","MEAN_ANOMALY":"286.2541","EPHEMERIS_TYPE":"0","MEAN_MOTION_DDOT":"0.0000000000000","ELEMENT_SET_NO":"999","COUNTRY_CODE":"US","RA_OF_ASC_NODE":"256.0151","ARG_OF_PERICENTER":"73.8550","FILE":"3115005","OBJECT_ID":"2021-036BJ","NORAD_CAT_ID":"48332","CENTER_NAME":"EARTH"},{"ECCENTRICITY":"0.00007360","TLE_LINE2":"2 48333  53.0566 255.7400 0000736  75.5246 284.5825 15.06406142 21125","MEAN_MOTION":"15.06406142","APOAPSIS":"547.704","MEAN_ELEMENT_THEORY":"SGP4","DECAY_DATE":null,"RCS_SIZE":"LARGE","EPOCH":"2021-09-13T11:58:25.284000","REV_AT_EPOCH":"2112","TIME_SYSTEM":"UTC","OBJECT_NAME":"STARLINK-2518","GP_ID":"184636894","OBJECT_TYPE":"PAYLOAD","PERIAPSIS":"546.685","CENTER_NAME":"EARTH","NORAD_CAT_ID":"48333","OBJECT_ID":"2021-036BK","FILE":"3114796","ARG_OF_PERICENTER":"75.5246","RA_OF_ASC_NODE":"255.7400","COUNTRY_CODE":"US","ELEMENT_SET_NO":"999","MEAN_MOTION_DDOT":"0.0000000000000","EPHEMERIS_TYPE":"0","MEAN_ANOMALY":"284.5825","SEMIMAJOR_AXIS":"6925.330","REF_FRAME":"TEME","MEAN_MOTION_DOT":"-0.00000393","LAUNCH_DATE":"2021-04-29","BSTAR":"-0.00000753330000","PERIOD":"95.592","CLASSIFICATION_TYPE":"U","SITE":"AFETR","TLE_LINE1":"1 48333U 21036BK  21256.49890375 -.00000393  00000-0 -75333-5 0  9997","INCLINATION":"53.0566"},{"REV_AT_EPOCH":"2171","TIME_SYSTEM":"UTC","OBJECT_NAME":"STARLINK-2470","GP_ID":"184639472","OBJECT_TYPE":"PAYLOAD","PERIAPSIS":"546.261","MEAN_ELEMENT_THEORY":"SGP4","DECAY_DATE":null,"RCS_SIZE":"LARGE","EPOCH":"2021-09-13T11:53:07.764000","MEAN_MOTION":"15.06392322","APOAPSIS":"548.214","ECCENTRICITY":"0.00014100","TLE_LINE2":"2 48334  53.0596 255.7546 0001410  41.0359 319.0736 15.06392322 21717","BSTAR":"-0.00003759300000","LAUNCH_DATE":"2021-04-29","CLASSIFICATION_TYPE":"U","PERIOD":"95.593","SITE":"AFETR","TLE_LINE1":"1 48334U 21036BL  21256.49522875 -.00000841  00000-0 -37593-4 0  9998","INCLINATION":"53.0596","MEAN_ANOMALY":"319.0736","EPHEMERIS_TYPE":"0","SEMIMAJOR_AXIS":"6925.372","REF_FRAME":"TEME","MEAN_MOTION_DOT":"-0.00000841","ARG_OF_PERICENTER":"41.0359","FILE":"3114892","RA_OF_ASC_NODE":"255.7546","COUNTRY_CODE":"US","ELEMENT_SET_NO":"999","MEAN_MOTION_DDOT":"0.0000000000000","CENTER_NAME":"EARTH","NORAD_CAT_ID":"48334","OBJECT_ID":"2021-036BL"},{"OBJECT_NAME":"STARLINK-2441","TIME_SYSTEM":"UTC","REV_AT_EPOCH":"2119","PERIAPSIS":"546.622","OBJECT_TYPE":"PAYLOAD","GP_ID":"184664620","MEAN_ELEMENT_THEORY":"SGP4","RCS_SIZE":"LARGE","EPOCH":"2021-09-13T22:56:35.158272","DECAY_DATE":null,"MEAN_MOTION":"15.06393226","APOAPSIS":"547.847","TLE_LINE2":"2 48335  53.0601 253.6788 0000884  66.1414 293.9668 15.06393226 21194","ECCENTRICITY":"0.00008840","CLASSIFICATION_TYPE":"U","PERIOD":"95.593","BSTAR":"-0.00005301600000","LAUNCH_DATE":"2021-04-29","INCLINATION":"53.0601","TLE_LINE1":"1 48335U 21036BM  21256.95596248 -.00001071  00000-0 -53016-4 0  9999","SITE":"AFETR","SEMIMAJOR_AXIS":"6925.369","REF_FRAME":"TEME","EPHEMERIS_TYPE":"0","MEAN_ANOMALY":"293.9668","MEAN_MOTION_DOT":"-0.00001071","ARG_OF_PERICENTER":"66.1414","FILE":"3115005","MEAN_MOTION_DDOT":"0.0000000000000","ELEMENT_SET_NO":"999","COUNTRY_CODE":"US","RA_OF_ASC_NODE":"253.6788","NORAD_CAT_ID":"48335","CENTER_NAME":"EARTH","OBJECT_ID":"2021-036BM"}];
